[{"OBJECT_NAME":"STARLINK-1556","OBJECT_ID":"2020-055G","EPOCH":"2026-03-10T00:00:02.999808","MEAN_MOTION":15.19594502,"ECCENTRICITY":0.00019373,"INCLINATION":53.1095,"RA_OF_ASC_NODE":124.8078,"ARG_OF_PERICENTER":90.9986,"MEAN_ANOMALY":131.2843,"EPHEMERIS_TYPE":0,"CLASSIFICATION_TYPE":"U","NORAD_CAT_ID":46033,"ELEMENT_SET_NO":999,"REV_AT_EPOCH":574,"BSTAR":0.005702776,"MEAN_MOTION_DOT":0.0012472,"MEAN_MOTION_DDOT":0},{"OBJECT_NAME":"CHAMRAN-1","OBJECT_ID":"2024-165B","EPOCH":"2026-03-09T21:50:33.228384","MEAN_MOTION":15.10235792,"ECCENTRICITY":0.0045019,"INCLINATION":64.0789,"RA_OF_ASC_NODE":8.4365,"ARG_OF_PERICENTER":310.8781,"MEAN_ANOMALY":48.8437,"EPHEMERIS_TYPE":0,"CLASSIFICATION_TYPE":"U","NORAD_CAT_ID":61072,"ELEMENT_SET_NO":999,"REV_AT_EPOCH":8166,"BSTAR":0.0004432,"MEAN_MOTION_DOT":7.263e-5,"MEAN_MOTION_DDOT":0}]
